[{"OBJECT_NAME":"ONEWEB-0207","OBJECT_ID":"2021-031AJ","EPOCH":"2026-06-05T14:35:56.472000","MEAN_MOTION":13.1450276,"ECCENTRICITY":0.0002161,"INCLINATION":87.8964,"RA_OF_ASC_NODE":292.0068,"ARG_OF_PERICENTER":101.2704,"MEAN_ANOMALY":258.8669,"EPHEMERIS_TYPE":0,"CLASSIFICATION_TYPE":"U","NORAD_CAT_ID":48242,"ELEMENT_SET_NO":999,"REV_AT_EPOCH":24677,"BSTAR":0.0006561399999999999,"MEAN_MOTION_DOT":2.56e-06,"MEAN_MOTION_DDOT":0.0},{"OBJECT_NAME":"ONEWEB-0208","OBJECT_ID":"2021-031AK","EPOCH":"2026-06-05T15:59:18.098016","MEAN_MOTION":13.14503062,"ECCENTRICITY":0.000167,"INCLINATION":87.896,"RA_OF_ASC_NODE":292.0022,"ARG_OF_PERICENTER":109.9854,"MEAN_ANOMALY":250.1456,"EPHEMERIS_TYPE":0,"CLASSIFICATION_TYPE":"U","NORAD_CAT_ID":48243,"ELEMENT_SET_NO":999,"REV_AT_EPOCH":24679,"BSTAR":0.00065865,"MEAN_MOTION_DOT":2.57e-06,"MEAN_MOTION_DDOT":0.0},{"OBJECT_NAME":"ONEWEB-0200","OBJECT_ID":"2021-031AL","EPOCH":"2026-06-05T16:56:22.174080","MEAN_MOTION":13.14502348,"ECCENTRICITY":0.0001867,"INCLINATION":87.896,"RA_OF_ASC_NODE":291.9801,"ARG_OF_PERICENTER":103.2601,"MEAN_ANOMALY":256.8737,"EPHEMERIS_TYPE":0,"CLASSIFICATION_TYPE":"U","NORAD_CAT_ID":48244,"ELEMENT_SET_NO":999,"REV_AT_EPOCH":24672,"BSTAR":-0.0005029400000000001,"MEAN_MOTION_DOT":-1.74e-06,"MEAN_MOTION_DDOT":0.0},{"OBJECT_NAME":"ONEWEB-0217","OBJECT_ID":"2021-031AM","EPOCH":"2026-06-05T19:08:49.283232","MEAN_MOTION":13.14502317,"ECCENTRICITY":0.0001777,"INCLINATION":87.8963,"RA_OF_ASC_NODE":291.9663,"ARG_OF_PERICENTER":110.0861,"MEAN_ANOMALY":250.046,"EPHEMERIS_TYPE":0,"CLASSIFICATION_TYPE":"U","NORAD_CAT_ID":48245,"ELEMENT_SET_NO":999,"REV_AT_EPOCH":24668,"BSTAR":-0.0002199,"MEAN_MOTION_DOT":-6.9e-07,"MEAN_MOTION_DDOT":0.0},{"OBJECT_NAME":"ONEWEB-0211","OBJECT_ID":"2021-045A","EPOCH":"2026-06-05T13:26:14.646336","MEAN_MOTION":13.16196357,"ECCENTRICITY":0.0001479,"INCLINATION":87.9004,"RA_OF_ASC_NODE":261.4007,"ARG_OF_PERICENTER":119.8349,"MEAN_ANOMALY":240.2929,"EPHEMERIS_TYPE":0,"CLASSIFICATION_TYPE":"U","NORAD_CAT_ID":48767,"ELEMENT_SET_NO":999,"REV_AT_EPOCH":24291,"BSTAR":-0.00012636,"MEAN_MOTION_DOT":-3.5e-07,"MEAN_MOTION_DDOT":0.0},{"OBJECT_NAME":"ONEWEB-0223","OBJECT_ID":"2021-045B","EPOCH":"2026-06-05T13:21:19.431360","MEAN_MOTION":13.15544843,"ECCENTRICITY":0.0001518,"INCLINATION":87.9008,"RA_OF_ASC_NODE":261.5071,"ARG_OF_PERICENTER":104.3428,"MEAN_ANOMALY":255.7871,"EPHEMERIS_TYPE":0,"CLASSIFICATION_TYPE":"U","NORAD_CAT_ID":48768,"ELEMENT_SET_NO":999,"REV_AT_EPOCH":24287,"BSTAR":-0.00015895000000000001,"MEAN_MOTION_DOT":-4.7e-07,"MEAN_MOTION_DDOT":0.0},{"OBJECT_NAME":"ONEWEB-0230","OBJECT_ID":"2021-045C","EPOCH":"2026-06-04T16:35:31.915104","MEAN_MOTION":13.15547587,"ECCENTRICITY":0.0002046,"INCLINATION":87.9,"RA_OF_ASC_NODE":261.6934,"ARG_OF_PERICENTER":95.2483,"MEAN_ANOMALY":264.8881,"EPHEMERIS_TYPE":0,"CLASSIFICATION_TYPE":"U","NORAD_CAT_ID":48769,"ELEMENT_SET_NO":999,"REV_AT_EPOCH":24302,"BSTAR":-0.00011960000000000001,"MEAN_MOTION_DOT":-3.2e-07,"MEAN_MOTION_DDOT":0.0},{"OBJECT_NAME":"ONEWEB-0237","OBJECT_ID":"2021-045D","EPOCH":"2026-06-05T19:42:22.905216","MEAN_MOTION":13.15550391,"ECCENTRICITY":0.0001664,"INCLINATION":87.8999,"RA_OF_ASC_NODE":261.47,"ARG_OF_PERICENTER":98.1802,"MEAN_ANOMALY":261.9517,"EPHEMERIS_TYPE":0,"CLASSIFICATION_TYPE":"U","NORAD_CAT_ID":48770,"ELEMENT_SET_NO":999,"REV_AT_EPOCH":24289,"BSTAR":0.00034634,"MEAN_MOTION_DOT":1.43e-06,"MEAN_MOTION_DDOT":0.0},{"OBJECT_NAME":"ONEWEB-0235","OBJECT_ID":"2021-045E","EPOCH":"2026-06-05T13:37:19.595424","MEAN_MOTION":13.15548036,"ECCENTRICITY":0.0001486,"INCLINATION":87.9007,"RA_OF_ASC_NODE":261.5053,"ARG_OF_PERICENTER":101.7374,"MEAN_ANOMALY":258.3923,"EPHEMERIS_TYPE":0,"CLASSIFICATION_TYPE":"U","NORAD_CAT_ID":48771,"ELEMENT_SET_NO":999,"REV_AT_EPOCH":24285,"BSTAR":0.00018012,"MEAN_MOTION_DOT":8.1e-07,"MEAN_MOTION_DDOT":0.0},{"OBJECT_NAME":"ONEWEB-0242","OBJECT_ID":"2021-045F","EPOCH":"2026-06-05T13:28:12.284256","MEAN_MOTION":13.15548544,"ECCENTRICITY":0.0001803,"INCLINATION":87.9009,"RA_OF_ASC_NODE":261.5031,"ARG_OF_PERICENTER":96.6379,"MEAN_ANOMALY":263.4957,"EPHEMERIS_TYPE":0,"CLASSIFICATION_TYPE":"U","NORAD_CAT_ID":48772,"ELEMENT_SET_NO":999,"REV_AT_EPOCH":24289,"BSTAR":-0.00017068,"MEAN_MOTION_DOT":-5.1e-07,"MEAN_MOTION_DDOT":0.0},{"OBJECT_NAME":"ONEWEB-0241","OBJECT_ID":"2021-045G","EPOCH":"2026-06-05T13:09:57.186720","MEAN_MOTION":13.1554782,"ECCENTRICITY":0.0001571,"INCLINATION":87.8994,"RA_OF_ASC_NODE":261.5249,"ARG_OF_PERICENTER":110.4757,"MEAN_ANOMALY":249.6542,"EPHEMERIS_TYPE":0,"CLASSIFICATION_TYPE":"U","NORAD_CAT_ID":48773,"ELEMENT_SET_NO":999,"REV_AT_EPOCH":24280,"BSTAR":-0.00025352999999999997,"MEAN_MOTION_DOT":-8.3e-07,"MEAN_MOTION_DDOT":0.0},{"OBJECT_NAME":"ONEWEB-0243","OBJECT_ID":"2021-045H","EPOCH":"2026-06-05T19:24:08.879040","MEAN_MOTION":13.1554775,"ECCENTRICITY":0.0001615,"INCLINATION":87.9,"RA_OF_ASC_NODE":261.4857,"ARG_OF_PERICENTER":87.4925,"MEAN_ANOMALY":272.639,"EPHEMERIS_TYPE":0,"CLASSIFICATION_TYPE":"U","NORAD_CAT_ID":48774,"ELEMENT_SET_NO":999,"REV_AT_EPOCH":24286,"BSTAR":0.00032529000000000005,"MEAN_MOTION_DOT":1.35e-06,"MEAN_MOTION_DDOT":0.0},{"OBJECT_NAME":"ONEWEB-0222","OBJECT_ID":"2021-045J","EPOCH":"2026-06-05T13:31:37.091136","MEAN_MOTION":13.15548582,"ECCENTRICITY":0.000171,"INCLINATION":87.9013,"RA_OF_ASC_NODE":261.5013,"ARG_OF_PERICENTER":103.5214,"MEAN_ANOMALY":256.6107,"EPHEMERIS_TYPE":0,"CLASSIFICATION_TYPE":"U","NORAD_CAT_ID":48775,"ELEMENT_SET_NO":999,"REV_AT_EPOCH":24287,"BSTAR":7.268900000000001e-06,"MEAN_MOTION_DOT":1.6e-07,"MEAN_MOTION_DDOT":0.0},{"OBJECT_NAME":"ONEWEB-0244","OBJECT_ID":"2021-045K","EPOCH":"2026-06-05T14:09:16.249824","MEAN_MOTION":13.15547393,"ECCENTRICITY":0.0001744,"INCLINATION":87.9014,"RA_OF_ASC_NODE":261.4899,"ARG_OF_PERICENTER":99.4443,"MEAN_ANOMALY":260.6884,"EPHEMERIS_TYPE":0,"CLASSIFICATION_TYPE":"U","NORAD_CAT_ID":48776,"ELEMENT_SET_NO":999,"REV_AT_EPOCH":24344,"BSTAR":0.00032133,"MEAN_MOTION_DOT":1.34e-06,"MEAN_MOTION_DDOT":0.0},{"OBJECT_NAME":"ONEWEB-0247","OBJECT_ID":"2021-045L","EPOCH":"2026-06-05T14:04:41.104704","MEAN_MOTION":13.15547117,"ECCENTRICITY":0.0001158,"INCLINATION":87.8998,"RA_OF_ASC_NODE":261.5244,"ARG_OF_PERICENTER":84.4885,"MEAN_ANOMALY":275.6377,"EPHEMERIS_TYPE":0,"CLASSIFICATION_TYPE":"U","NORAD_CAT_ID":48777,"ELEMENT_SET_NO":999,"REV_AT_EPOCH":24288,"BSTAR":0.00050391,"MEAN_MOTION_DOT":2.03e-06,"MEAN_MOTION_DDOT":0.0},{"OBJECT_NAME":"ONEWEB-0245","OBJECT_ID":"2021-045M","EPOCH":"2026-06-05T19:26:24.630720","MEAN_MOTION":13.15562646,"ECCENTRICITY":0.0002583,"INCLINATION":87.9047,"RA_OF_ASC_NODE":261.4531,"ARG_OF_PERICENTER":99.6654,"MEAN_ANOMALY":260.4768,"EPHEMERIS_TYPE":0,"CLASSIFICATION_TYPE":"U","NORAD_CAT_ID":48778,"ELEMENT_SET_NO":999,"REV_AT_EPOCH":24288,"BSTAR":0.005008200000000001,"MEAN_MOTION_DOT":1.899e-05,"MEAN_MOTION_DDOT":0.0}]