ONEWEB-0207             
1 48242U 21031AJ  26156.60829250  .00000256  00000+0  65614-3 0  9996
2 48242  87.8964 292.0068 0002161 101.2704 258.8669 13.14502760246775
ONEWEB-0208             
1 48243U 21031AK  26156.66618169  .00000257  00000+0  65865-3 0  9997
2 48243  87.8960 292.0022 0001670 109.9854 250.1456 13.14503062246794
ONEWEB-0200             
1 48244U 21031AL  26156.70581220 -.00000174  00000+0 -50294-3 0  9990
2 48244  87.8960 291.9801 0001867 103.2601 256.8737 13.14502348246727
ONEWEB-0217             
1 48245U 21031AM  26156.79779263 -.00000069  00000+0 -21990-3 0  9990
2 48245  87.8963 291.9663 0001777 110.0861 250.0460 13.14502317246681
ONEWEB-0211             
1 48767U 21045A   26156.55989174 -.00000035  00000+0 -12636-3 0  9992
2 48767  87.9004 261.4007 0001479 119.8349 240.2929 13.16196357242916
ONEWEB-0223             
1 48768U 21045B   26156.55647490 -.00000047  00000+0 -15895-3 0  9998
2 48768  87.9008 261.5071 0001518 104.3428 255.7871 13.15544843242872
ONEWEB-0230             
1 48769U 21045C   26155.69134161 -.00000032  00000+0 -11960-3 0  9992
2 48769  87.9000 261.6934 0002046  95.2483 264.8881 13.15547587243028
ONEWEB-0237             
1 48770U 21045D   26156.82109844  .00000143  00000+0  34634-3 0  9994
2 48770  87.8999 261.4700 0001664  98.1802 261.9517 13.15550391242892
ONEWEB-0235             
1 48771U 21045E   26156.56758791  .00000081  00000+0  18012-3 0  9990
2 48771  87.9007 261.5053 0001486 101.7374 258.3923 13.15548036242853
ONEWEB-0242             
1 48772U 21045F   26156.56125329 -.00000051  00000+0 -17068-3 0  9995
2 48772  87.9009 261.5031 0001803  96.6379 263.4957 13.15548544242894
ONEWEB-0241             
1 48773U 21045G   26156.54857855 -.00000083  00000+0 -25353-3 0  9991
2 48773  87.8994 261.5249 0001571 110.4757 249.6542 13.15547820242808
ONEWEB-0243             
1 48774U 21045H   26156.80843610  .00000135  00000+0  32529-3 0  9994
2 48774  87.9000 261.4857 0001615  87.4925 272.6390 13.15547750242866
ONEWEB-0222             
1 48775U 21045J   26156.56362374  .00000016  00000+0  72689-5 0  9992
2 48775  87.9013 261.5013 0001710 103.5214 256.6107 13.15548582242876
ONEWEB-0244             
1 48776U 21045K   26156.58977141  .00000134  00000+0  32133-3 0  9998
2 48776  87.9014 261.4899 0001744  99.4443 260.6884 13.15547393243443
ONEWEB-0247             
1 48777U 21045L   26156.58658686  .00000203  00000+0  50391-3 0  9992
2 48777  87.8998 261.5244 0001158  84.4885 275.6377 13.15547117242886
ONEWEB-0245             
1 48778U 21045M   26156.81000730  .00001899  00000+0  50082-2 0  9998
2 48778  87.9047 261.4531 0002583  99.6654 260.4768 13.15562646242886
